STARLINK-6058           
1 56797U 23078AG  26161.13748922  .00001247  00000+0  11234-3 0  9993
2 56797  69.9994 111.5312 0003398 266.3267  93.7503 14.98320277166521
STARLINK-5953           
1 56799U 23078AJ  26161.17919785  .00000617  00000+0  59504-4 0  9999
2 56799  69.9986 111.2770 0003633 270.1606  89.9137 14.98328695166534
STARLINK-6036           
1 56800U 23078AK  26161.18336252  .00001378  00000+0  12318-3 0  9991
2 56800  69.9992 111.2956 0003060 268.4127  91.6682 14.98342586166532
STARLINK-6087           
1 56801U 23078AL  26161.13304601 -.00000444  00000+0 -29437-4 0  9996
2 56801  70.0002  91.2541 0003057 268.7802  91.3007 14.98334411167025
STARLINK-6029           
1 56803U 23078AN  26161.17083243  .00000923  00000+0  85099-4 0  9994
2 56803  69.9993 111.2525 0003370 267.7449  92.3325 14.98332915166538
STARLINK-6069           
1 56804U 23078AP  26161.14140233 -.00001137  00000+0 -87505-4 0  9999
2 56804  70.0000  91.2832 0002691 265.6178  94.4673 14.98321331167697
STARLINK-6064           
1 56805U 23078AQ  26161.14556109 -.00010619  00000+0 -88177-3 0  9993
2 56805  69.9999  91.2969 0003546 265.6853  94.3901 14.98402835167022
STARLINK-6072           
1 56806U 23078AR  26161.17454021 -.00000221  00000+0 -10723-4 0  9998
2 56806  70.0005  71.1158 0002778 270.9242  89.1599 14.98329978167490
STARLINK-6073           
1 56807U 23078AS  26161.19145643  .00001310  00000+0  11754-3 0  9990
2 56807  70.0008  91.0539 0003195 266.3943  93.6850 14.98331507167029
STARLINK-6042           
1 56808U 23078AT  26160.99688714  .00001488  00000+0  13251-3 0  9999
2 56808  70.0000  41.8016 0003171 270.3922  89.6873 14.98324943168242
STARLINK-6040           
1 56809U 23078AU  26161.14996551  .00000612  00000+0  59081-4 0  9999
2 56809  69.9996 111.1795 0003357 265.3927  94.6849 14.98330496166533
STARLINK-6031           
1 56810U 23078AV  26161.16666944  .00000839  00000+0  78073-4 0  9996
2 56810  69.9991 111.2373 0003233 263.8864  96.1927 14.98341546166531
STARLINK-6065           
1 56812U 23078AX  26161.13321410  .00000040  00000+0  11187-4 0  9998
2 56812  70.0001  91.2600 0002934 268.7294  91.3529 14.98328630167025
STARLINK-6056           
1 56813U 23078AY  26161.14595705  .00000774  00000+0  72681-4 0  9990
2 56813  69.9997 111.1652 0003220 267.2657  92.8133 14.98330051166534
STARLINK-6059           
1 56814U 23078AZ  26161.15414018  .00000476  00000+0  47711-4 0  9994
2 56814  69.9995 111.1932 0003077 262.3065  97.7744 14.98330196166535
STARLINK-6067           
1 56816U 23078BB  26161.18728156  .00001461  00000+0  13021-3 0  9991
2 56816  69.9998  91.0405 0003150 263.9666  96.1134 14.98336722167030
STARLINK-6028           
1 56818U 23078BD  26161.14579359  .00002180  00000+0  19040-3 0  9994
2 56818  70.0006 111.1632 0002982 268.5946  91.4872 14.98334074167221
STARLINK-30119          
1 56823U 23079A   26160.67574725 -.00004249  00000+0 -14475-3 0  9997
2 56823  43.0382 307.8123 0004185 285.1694  74.8696 15.27604904167386
STARLINK-30120          
1 56824U 23079B   26160.68992536 -.00001263  00000+0 -36420-4 0  9991
2 56824  43.0012 307.9061 0000506 262.6773  97.4021 15.27568653167271
STARLINK-30084          
1 56825U 23079C   26161.28338157 -.00001195  00000+0 -33894-4 0  9998
2 56825  43.0022 303.7660 0000904 271.1775  88.8973 15.27581646167054
STARLINK-30114          
1 56826U 23079D   26161.12572718 -.00000001  00000+0  95112-5 0  9991
2 56826  43.0112 304.9665 0001533 265.0082  95.0595 15.27587354167338
STARLINK-30151          
1 56827U 23079E   26161.11677090  .00000173  00000+0  15829-4 0  9995
2 56827  42.9961 305.0788 0001663 268.4007  91.6654 15.27577122167021
STARLINK-30152          
1 56828U 23079F   26161.12062874  .00001587  00000+0  67173-4 0  9994
2 56828  43.0049 305.1190 0001067 285.0417  75.0317 15.27583912167023
STARLINK-30128          
1 56832U 23079K   26161.03141893  .00000293  00000+0  20172-4 0  9999
2 56832  43.0037 279.7381 0001011 279.2973  80.7764 15.27570416160908
STARLINK-30131          
1 56833U 23079L   26161.04494078  .00022797  00000+0  93139-3 0  9992
2 56833  43.0000 283.4327 0003421 303.4862  56.5661 15.23957417167264
STARLINK-30069          
1 56834U 23079M   26161.11726319  .00003785  00000+0  14694-3 0  9992
2 56834  43.0030 301.6788 0001754 263.5542  96.5110 15.27590678167067
STARLINK-30144          
1 56835U 23079N   26161.33335648  .00084134  00000+0  21604-2 0  9993
2 56835  42.9935 296.6387 0013555 322.6568 275.1466 15.38254226  5793
STARLINK-30142          
1 56836U 23079P   26160.67113087  .00003720  00000+0  14463-3 0  9999
2 56836  43.0061 304.3459 0002013 266.7274  93.3347 15.27580286166996
STARLINK-30133          
1 56837U 23079Q   26161.28208963  .00006912  00000+0  26033-3 0  9998
2 56837  43.0022 303.7383 0001209 258.3484 101.7232 15.27598665167054
STARLINK-30123          
1 56838U 23079R   26160.47576060 -.00001321  00000+0 -38525-4 0  9996
2 56838  42.9991 235.5836 0000822 244.3180 115.7587 15.27568232167786
