OBJECT_NAME,OBJECT_ID,EPOCH,MEAN_MOTION,ECCENTRICITY,INCLINATION,RA_OF_ASC_NODE,ARG_OF_PERICENTER,MEAN_ANOMALY,EPHEMERIS_TYPE,CLASSIFICATION_TYPE,NORAD_CAT_ID,ELEMENT_SET_NO,REV_AT_EPOCH,BSTAR,MEAN_MOTION_DOT,MEAN_MOTION_DDOT
STARLINK-6058,2023-078AG,2026-06-10T03:17:59.068608,14.98320277,.00033981,69.9994,111.5312,266.3267,93.7503,0,U,56797,999,16652,.11233772E-3,.1247E-4,0
STARLINK-5953,2023-078AJ,2026-06-10T04:18:02.694240,14.98328695,.00036333,69.9986,111.2770,270.1606,89.9137,0,U,56799,999,16653,.59504467E-4,.617E-5,0
STARLINK-6036,2023-078AK,2026-06-10T04:24:02.521728,14.98342586,.00030607,69.9992,111.2956,268.4127,91.6682,0,U,56800,999,16653,.12318284E-3,.1378E-4,0
STARLINK-6087,2023-078AL,2026-06-10T03:11:35.175264,14.98334411,.0003057,70.0002,91.2541,268.7802,91.3007,0,U,56801,999,16702,-.29437119E-4,-.444E-5,0
STARLINK-6029,2023-078AN,2026-06-10T04:05:59.921952,14.98332915,.000337,69.9993,111.2525,267.7449,92.3325,0,U,56803,999,16653,.85098651E-4,.923E-5,0
STARLINK-6069,2023-078AP,2026-06-10T03:23:37.161312,14.98321331,.00026917,70.0000,91.2832,265.6178,94.4673,0,U,56804,999,16769,-.87504748E-4,-.1137E-4,0
STARLINK-6064,2023-078AQ,2026-06-10T03:29:36.478176,14.98402835,.00035467,69.9999,91.2969,265.6853,94.3901,0,U,56805,999,16702,-.88177332E-3,-.10619E-3,0
STARLINK-6072,2023-078AR,2026-06-10T04:11:20.274144,14.98329978,.00027782,70.0005,71.1158,270.9242,89.1599,0,U,56806,999,16749,-.10722542E-4,-.221E-5,0
STARLINK-6073,2023-078AS,2026-06-10T04:35:41.835552,14.98331507,.00031954,70.0008,91.0539,266.3943,93.6850,0,U,56807,999,16702,.11753816E-3,.131E-4,0
STARLINK-6042,2023-078AT,2026-06-09T23:55:31.048896,14.98324943,.00031717,70.0000,41.8016,270.3922,89.6873,0,U,56808,999,16824,.13251382E-3,.1488E-4,0
STARLINK-6040,2023-078AU,2026-06-10T03:35:57.020064,14.98330496,.00033579,69.9996,111.1795,265.3927,94.6849,0,U,56809,999,16653,.59081439E-4,.612E-5,0
STARLINK-6031,2023-078AV,2026-06-10T04:00:00.239616,14.98341546,.00032337,69.9991,111.2373,263.8864,96.1927,0,U,56810,999,16653,.78073115E-4,.839E-5,0
STARLINK-6065,2023-078AX,2026-06-10T03:11:49.698240,14.98328630,.0002934,70.0001,91.2600,268.7294,91.3529,0,U,56812,999,16702,.11187008E-4,.4E-6,0
STARLINK-6056,2023-078AY,2026-06-10T03:30:10.689120,14.98330051,.00032206,69.9997,111.1652,267.2657,92.8133,0,U,56813,999,16653,.72681209E-4,.774E-5,0
STARLINK-6059,2023-078AZ,2026-06-10T03:41:57.711552,14.98330196,.00030772,69.9995,111.1932,262.3065,97.7744,0,U,56814,999,16653,.47711287E-4,.476E-5,0
STARLINK-6067,2023-078BB,2026-06-10T04:29:41.126784,14.98336722,.00031502,69.9998,91.0405,263.9666,96.1134,0,U,56816,999,16703,.13020713E-3,.1461E-4,0
STARLINK-6028,2023-078BD,2026-06-10T03:29:56.566176,14.98334074,.00029822,70.0006,111.1632,268.5946,91.4872,0,U,56818,999,16722,.19039586E-3,.218E-4,0
STARLINK-30119,2023-079A,2026-06-09T16:13:04.562400,15.27604904,.00041852,43.0382,307.8123,285.1694,74.8696,0,U,56823,999,16738,-.1447476E-3,-.4249E-4,0
STARLINK-30120,2023-079B,2026-06-09T16:33:29.551104,15.27568653,.00005063,43.0012,307.9061,262.6773,97.4021,0,U,56824,999,16727,-.36419825E-4,-.1263E-4,0
STARLINK-30084,2023-079C,2026-06-10T06:48:04.167648,15.27581646,.00009049,43.0022,303.7660,271.1775,88.8973,0,U,56825,999,16705,-.33893573E-4,-.1195E-4,0
STARLINK-30114,2023-079D,2026-06-10T03:01:02.828352,15.27587354,.00015333,43.0112,304.9665,265.0082,95.0595,0,U,56826,999,16733,.9511164E-5,-.1E-7,0
STARLINK-30151,2023-079E,2026-06-10T02:48:09.005760,15.27577122,.00016639,42.9961,305.0788,268.4007,91.6654,0,U,56827,999,16702,.15829134E-4,.173E-5,0
STARLINK-30152,2023-079F,2026-06-10T02:53:42.323136,15.27583912,.00010672,43.0049,305.1190,285.0417,75.0317,0,U,56828,999,16702,.67173357E-4,.1587E-4,0
STARLINK-30128,2023-079K,2026-06-10T00:45:14.595552,15.27570416,.00010112,43.0037,279.7381,279.2973,80.7764,0,U,56832,999,16090,.20171851E-4,.293E-5,0
STARLINK-30131,2023-079L,2026-06-10T01:04:42.883392,15.23957417,.00034218,43.0000,283.4327,303.4862,56.5661,0,U,56833,999,16726,.93138783E-3,.22797E-3,0
STARLINK-30069,2023-079M,2026-06-10T02:48:51.539616,15.27590678,.00017549,43.0030,301.6788,263.5542,96.5110,0,U,56834,999,16706,.14694398E-3,.3785E-4,0
STARLINK-30144,2023-079N,2026-06-10T08:00:01.999872,15.38254226,.00135559,42.9935,296.6387,322.6568,275.1466,0,U,56835,999,579,.21603828E-2,.84134E-3,0
STARLINK-30142,2023-079P,2026-06-09T16:06:25.707168,15.27580286,.00020139,43.0061,304.3459,266.7274,93.3347,0,U,56836,999,16699,.1446325E-3,.372E-4,0
STARLINK-30133,2023-079Q,2026-06-10T06:46:12.544032,15.27598665,.00012096,43.0022,303.7383,258.3484,101.7232,0,U,56837,999,16705,.26033443E-3,.6912E-4,0
STARLINK-30123,2023-079R,2026-06-09T11:25:05.715840,15.27568232,.00008225,42.9991,235.5836,244.3180,115.7587,0,U,56838,999,16778,-.38525259E-4,-.1321E-4,0
